[{"OBJECT_NAME":"TISAT 1","OBJECT_ID":"2010-035E","EPOCH":"2026-03-09T18:10:07.877568","MEAN_MOTION":15.27628633,"ECCENTRICITY":0.00013432,"INCLINATION":98.0645,"RA_OF_ASC_NODE":6.8512,"ARG_OF_PERICENTER":159.303,"MEAN_ANOMALY":200.8262,"EPHEMERIS_TYPE":0,"CLASSIFICATION_TYPE":"U","NORAD_CAT_ID":36799,"ELEMENT_SET_NO":999,"REV_AT_EPOCH":85250,"BSTAR":0.00091004793,"MEAN_MOTION_DOT":0.00024554,"MEAN_MOTION_DDOT":0},{"OBJECT_NAME":"STARLINK-36078","OBJECT_ID":"2025-294W","EPOCH":"2026-03-09T07:24:28.984320","MEAN_MOTION":15.27585363,"ECCENTRICITY":0.00013662,"INCLINATION":43.0053,"RA_OF_ASC_NODE":39.9878,"ARG_OF_PERICENTER":280.7022,"MEAN_ANOMALY":79.3676,"EPHEMERIS_TYPE":0,"CLASSIFICATION_TYPE":"U","NORAD_CAT_ID":67050,"ELEMENT_SET_NO":999,"REV_AT_EPOCH":1474,"BSTAR":0.00047667158,"MEAN_MOTION_DOT":0.0001288,"MEAN_MOTION_DDOT":0}]
