TISAT 1                 
1 36799U 10035E   26068.75703561  .00024554  00000+0  91005-3 0  9996
2 36799  98.0645   6.8512 0001343 159.3030 200.8262 15.27628633852505
STARLINK-36078          
1 67050U 25294W   26068.30866880  .00012880  00000+0  47667-3 0  9992
2 67050  43.0053  39.9878 0001366 280.7022  79.3676 15.27585363 14745
